NORAD_CAT_ID,OBJECT_NAME,OBJECT_TYPE,EPOCH,MEAN_MOTION,ECCENTRICITY,INCLINATION,RA_OF_ASC_NODE,ARG_OF_PERICENTER,MEAN_ANOMALY,BSTAR,MEAN_MOTION_DOT,MEAN_MOTION_DDOT,TLE_LINE0,TLE_LINE1,TLE_LINE2,SEMIMAJOR_AXIS,PERIOD,APOGEE,PERIGEE,DECAYED
52465.0,STARLINK-3863,PAYLOAD,2023-09-03 04:20:46,15.08839662,0.0001195,53.2155,212.4647,88.8211,271.2918,-5.9654e-06,-3.83e-06,0.0,0 STARLINK-3863,1 52465U 22049Q   23246.18109249 -.00000383  00000-0 -59654-5 0  9990,2 52465  53.2155 212.4647 0001195  88.8211 271.2918 15.08839662 73889,6917.881,95.438,540.573,538.92,0.0
52465.0,STARLINK-3863,PAYLOAD,2023-09-04 07:22:19,15.08842398,0.0001442,53.2163,207.4082,97.6349,262.4806,-1.7398e-05,-5.65e-06,0.0,0 STARLINK-3863,1 52465U 22049Q   23247.30717255 -.00000565  00000-0 -17398-4 0  9997,2 52465  53.2163 207.4082 0001442  97.6349 262.4806 15.08842398 74058,6917.873,95.437,540.736,538.741,0.0
52465.0,STARLINK-3863,PAYLOAD,2023-09-05 04:02:21,15.0882481,0.0001328,53.2179,203.5461,94.5415,265.5729,0.00022249,3.253e-05,0.0,0 STARLINK-3863,1 52465U 22049Q   23248.16830151  .00003253  00000-0  22249-3 0  9998,2 52465  53.2179 203.5461 0001328  94.5415 265.5729 15.08824810 74187,6917.927,95.439,540.711,538.873,0.0
52465.0,STARLINK-3863,PAYLOAD,2023-09-06 02:17:44,15.08836903,0.0001277,53.2177,199.3831,100.0757,260.038,8.0961e-05,1.001e-05,0.0,0 STARLINK-3863,1 52465U 22049Q   23249.09565878  .00001001  00000-0  80961-4 0  9997,2 52465  53.2177 199.3831 0001277 100.0757 260.0380 15.08836903 74328,6917.89,95.438,540.638,538.871,0.0
52465.0,STARLINK-3863,PAYLOAD,2023-09-06 03:53:08,15.08837816,0.0001276,53.2177,199.0858,100.3295,259.7841,8.9296e-05,1.133e-05,0.0,0 STARLINK-3863,1 52465U 22049Q   23249.16189858  .00001133  00000-0  89296-4 0  9991,2 52465  53.2177 199.0858 0001276 100.3295 259.7841 15.08837816 74177,6917.887,95.438,540.635,538.869,0.0
52465.0,STARLINK-3863,PAYLOAD,2023-09-06 21:22:22,15.08838063,0.0001178,53.2168,195.8135,96.9959,263.1167,4.3186e-05,4e-06,0.0,0 STARLINK-3863,1 52465U 22049Q   23249.89054128  .00000400  00000-0  43186-4 0  9996,2 52465  53.2168 195.8135 0001178  96.9959 263.1167 15.08838063 74284,6917.886,95.438,540.566,538.936,0.0
52465.0,STARLINK-3863,PAYLOAD,2023-09-07 06:54:41,15.08842515,0.0001159,53.2167,194.0291,95.7833,264.3292,7.2938e-05,8.73e-06,0.0,0 STARLINK-3863,1 52465U 22049Q   23250.28797757  .00000873  00000-0  72938-4 0  9994,2 52465  53.2167 194.0291 0001159  95.7833 264.3292 15.08842515 74508,6917.873,95.437,540.539,538.936,0.0
52465.0,STARLINK-3863,PAYLOAD,2023-09-08 05:10:04,15.08851211,0.0001383,53.2174,189.8627,84.1551,275.9599,-7.4326e-06,-4.06e-06,0.0,0 STARLINK-3863,1 52465U 22049Q   23251.21533542 -.00000406  00000-0 -74326-5 0  9996,2 52465  53.2174 189.8627 0001383  84.1551 275.9599 15.08851211 74487,6917.846,95.437,540.668,538.754,0.0
52465.0,STARLINK-3863,PAYLOAD,2023-09-09 01:50:06,15.08834918,0.0001337,53.2171,186.0012,78.1758,281.9384,0.00012491,1.7e-05,0.0,0 STARLINK-3863,1 52465U 22049Q   23252.07646276  .00001700  00000-0  12491-3 0  9999,2 52465  53.2171 186.0012 0001337  78.1758 281.9384 15.08834918 74778,6917.896,95.438,540.686,538.836,0.0
52465.0,STARLINK-3863,PAYLOAD,2023-09-09 05:00:52,15.08846617,0.0001434,53.2175,185.404,88.5368,271.5789,8.8387e-05,1.119e-05,0.0,0 STARLINK-3863,1 52465U 22049Q   23252.20893634  .00001119  00000-0  88387-4 0  9998,2 52465  53.2175 185.4040 0001434  88.5368 271.5789 15.08846617 74791,6917.86,95.437,540.717,538.733,0.0
52465.0,STARLINK-3863,PAYLOAD,2023-09-09 12:57:48,15.08836655,0.0001353,53.2178,183.9143,91.1991,268.9156,4.1771e-05,3.77e-06,0.0,0 STARLINK-3863,1 52465U 22049Q   23252.54014360  .00000377  00000-0  41771-4 0  9997,2 52465  53.2178 183.9143 0001353  91.1991 268.9156 15.08836655 74680,6917.891,95.438,540.692,538.82,0.0
52465.0,STARLINK-3863,PAYLOAD,2023-09-09 19:19:21,15.0883547,0.0001411,53.2174,182.7256,89.2632,270.8522,3.037e-05,1.95e-06,0.0,0 STARLINK-3863,1 52465U 22049Q   23252.80510725  .00000195  00000-0  30370-4 0  9993,2 52465  53.2174 182.7256 0001411  89.2632 270.8522 15.08835470 74888,6917.894,95.438,540.735,538.783,0.0
52465.0,STARLINK-3863,PAYLOAD,2023-09-10 01:40:53,15.0884609,0.0001323,53.217,181.5377,92.4055,267.7089,3.2085e-05,2.23e-06,0.0,0 STARLINK-3863,1 52465U 22049Q   23253.07005876  .00000223  00000-0  32085-4 0  9996,2 52465  53.2170 181.5377 0001323  92.4055 267.7089 15.08846090 74920,6917.862,95.437,540.642,538.812,0.0
52465.0,STARLINK-3863,PAYLOAD,2023-09-10 04:51:39,15.0884742,0.0001342,53.217,180.9429,91.8696,268.245,4.8879e-05,4.9e-06,0.0,0 STARLINK-3863,1 52465U 22049Q   23253.20253782  .00000490  00000-0  48879-4 0  9996,2 52465  53.2170 180.9429 0001342  91.8696 268.2450 15.08847420 74786,6917.858,95.437,540.651,538.794,0.0
52465.0,STARLINK-3863,PAYLOAD,2023-09-11 01:31:40,15.08843536,0.0001401,53.2177,177.0788,94.0377,266.0775,-6.9688e-07,-2.99e-06,0.0,0 STARLINK-3863,1 52465U 22049Q   23254.06366263 -.00000299  00000-0 -69688-6 0  9992,2 52465  53.2177 177.0788 0001401  94.0377 266.0775 15.08843536 75078,6917.87,95.437,540.704,538.765,0.0
52465.0,STARLINK-3863,PAYLOAD,2023-09-11 04:42:26,15.08847744,0.0001406,53.2174,176.4824,101.5794,258.5356,-4.3902e-06,-3.58e-06,0.0,0 STARLINK-3863,1 52465U 22049Q   23254.19613930 -.00000358  00000-0 -43902-5 0  9998,2 52465  53.2174 176.4824 0001406 101.5794 258.5356 15.08847744 74931,6917.857,95.437,540.694,538.749,0.0
52465.0,STARLINK-3863,PAYLOAD,2023-09-12 04:33:12,15.08859956,0.0002009,53.218,172.0189,115.8962,244.2237,-9.7678e-05,-1.843e-05,0.0,0 STARLINK-3863,1 52465U 22049Q   23255.18973179 -.00001843  00000-0 -97678-4 0  9990,2 52465  53.2180 172.0189 0002009 115.8962 244.2237 15.08859956 75242,6917.819,95.436,541.074,538.295,0.0
52465.0,STARLINK-3863,PAYLOAD,2023-09-13 01:13:13,15.08853861,0.0001127,53.2173,168.1546,98.8999,261.212,0.0001507,2.112e-05,0.0,0 STARLINK-3863,1 52465U 22049Q   23256.05085074  .00002112  00000-0  15070-3 0  9998,2 52465  53.2173 168.1546 0001127  98.8999 261.2120 15.08853861 75370,6917.838,95.437,540.483,538.923,0.0
52465.0,STARLINK-3863,PAYLOAD,2023-09-13 04:23:59,15.08855195,0.0001207,53.2169,167.561,101.2917,258.8211,0.00015049,2.109e-05,0.0,0 STARLINK-3863,1 52465U 22049Q   23256.18332935  .00002109  00000-0  15049-3 0  9995,2 52465  53.2169 167.5610 0001207 101.2917 258.8211 15.08855195 75238,6917.834,95.437,540.534,538.864,0.0
52465.0,STARLINK-3863,PAYLOAD,2023-09-13 18:42:31,15.08819054,0.0001122,53.2177,164.8859,83.5624,276.5496,-0.00022864,-3.923e-05,0.0,0 STARLINK-3863,1 52465U 22049Q   23256.77952774 -.00003923  00000-0 -22864-3 0  9999,2 52465  53.2177 164.8859 0001122  83.5624 276.5496 15.08819054 75488,6917.944,95.439,540.586,539.033,0.0
52465.0,STARLINK-3863,PAYLOAD,2023-09-13 21:53:17,15.08814251,0.0001083,53.2176,164.2918,90.5474,269.5642,-0.0002749,-4.657e-05,0.0,0 STARLINK-3863,1 52465U 22049Q   23256.91201326 -.00004657  00000-0 -27490-3 0  9990,2 52465  53.2176 164.2918 0001083  90.5474 269.5642 15.08814251 75348,6917.959,95.439,540.573,539.075,0.0
52465.0,STARLINK-3863,PAYLOAD,2023-09-14 01:04:04,15.08811901,0.0001448,53.217,163.6974,73.5107,286.6044,-0.00026911,-4.565e-05,0.0,0 STARLINK-3863,1 52465U 22049Q   23257.04449846 -.00004565  00000-0 -26911-3 0  9991,2 52465  53.2170 163.6974 0001448  73.5107 286.6044 15.08811901 75521,6917.966,95.439,540.833,538.83,0.0
52465.0,STARLINK-3863,PAYLOAD,2023-09-14 12:11:45,15.0882177,0.0001468,53.2169,161.6179,97.4805,262.6354,1.6391e-05,-2.7e-07,0.0,0 STARLINK-3863,1 52465U 22049Q   23257.50816796 -.00000027  00000-0  16391-4 0  9994,2 52465  53.2169 161.6179 0001468  97.4805 262.6354 15.08821770 75439,6917.936,95.439,540.817,538.786,0.0
52465.0,STARLINK-3863,PAYLOAD,2023-09-14 16:57:55,15.08822199,8.84e-05,53.2177,160.7247,83.9065,276.2028,1.9661e-05,2.5e-07,0.0,0 STARLINK-3863,1 52465U 22049Q   23257.70689018  .00000025  00000-0  19661-4 0  9991,2 52465  53.2177 160.7247 0000884  83.9065 276.2028 15.08822199 75629,6917.935,95.439,540.411,539.188,0.0
52465.0,STARLINK-3863,PAYLOAD,2023-09-14 21:44:03,15.08850446,0.0001111,53.2168,159.8326,91.4569,268.655,6.8419e-05,8.02e-06,0.0,0 STARLINK-3863,1 52465U 22049Q   23257.90559083  .00000802  00000-0  68419-4 0  9999,2 52465  53.2168 159.8326 0001111  91.4569 268.6550 15.08850446 75499,6917.848,95.437,540.482,538.945,0.0
52465.0,STARLINK-3863,PAYLOAD,2023-09-15 02:30:11,15.08857321,0.0001095,53.2166,158.9394,100.9872,259.1244,0.00012868,1.762e-05,0.0,0 STARLINK-3863,1 52465U 22049Q   23258.10430389  .00001762  00000-0  12868-3 0  9991,2 52465  53.2166 158.9394 0001095 100.9872 259.1244 15.08857321 75681,6917.827,95.436,540.45,538.935,0.0
52465.0,STARLINK-3863,PAYLOAD,2023-09-16 02:20:58,15.08844399,0.0001165,53.2172,154.4782,85.4276,274.6849,0.00043991,6.721e-05,0.0,0 STARLINK-3863,1 52465U 22049Q   23259.09790456  .00006721  00000-0  43991-3 0  9995,2 52465  53.2172 154.4782 0001165  85.4276 274.6849 15.08844399 75834,6917.867,95.437,540.538,538.926,0.0
52465.0,STARLINK-3863,PAYLOAD,2023-09-16 11:53:18,15.08838862,9.31e-05,53.2171,152.6961,78.9833,281.1264,0.00010919,1.45e-05,0.0,0 STARLINK-3863,1 52465U 22049Q   23259.49535757  .00001450  00000-0  10919-3 0  9998,2 52465  53.2171 152.6961 0000931  78.9833 281.1264 15.08838862 75739,6917.884,95.438,540.393,539.105,0.0
52465.0,STARLINK-3863,PAYLOAD,2023-09-17 00:36:23,15.0885219,0.0001047,53.2167,150.3168,84.7131,275.3981,-3.0867e-05,-7.79e-06,0.0,0 STARLINK-3863,1 52465U 22049Q   23260.02527090 -.00000779  00000-0 -30867-4 0  9990,2 52465  53.2167 150.3168 0001047  84.7131 275.3981 15.08852190 75970,6917.843,95.437,540.432,538.984,0.0
52465.0,STARLINK-3863,PAYLOAD,2023-09-17 02:11:46,15.08856238,0.0001092,53.2175,150.0176,87.5644,272.5473,-7.3409e-06,-4.05e-06,0.0,0 STARLINK-3863,1 52465U 22049Q   23260.09150867 -.00000405  00000-0 -73409-5 0  9997,2 52465  53.2175 150.0176 0001092  87.5644 272.5473 15.08856238 75821,6917.831,95.437,540.451,538.94,0.0
